{
"type": "FeatureCollection",
"name": "mumbai_stations",
"crs": { "type": "name", "properties": { "name": "urn:ogc:def:crs:OGC:1.3:CRS84" } },
"features": [
{ "type": "Feature", "properties": { "station_id": "MUM_RAIL_STN_001", "station_name": "Churchgate", "longitude": 72.827191987851407, "latitude": 18.935296181881501, "source": "BMC via OpenCity.in", "source_file": "mumbai_suburban_stations.kml", "source_url": "https://data.opencity.in/dataset/mumbai-suburban-network-2025" }, "geometry": { "type": "Point", "coordinates": [ 72.827191987851407, 18.935296181881501 ] } },
{ "type": "Feature", "properties": { "station_id": "MUM_RAIL_STN_002", "station_name": "Marine Lines", "longitude": 72.823814482294594, "latitude": 18.9457881977143, "source": "BMC via OpenCity.in", "source_file": "mumbai_suburban_stations.kml", "source_url": "https://data.opencity.in/dataset/mumbai-suburban-network-2025" }, "geometry": { "type": "Point", "coordinates": [ 72.823814482294594, 18.9457881977143 ] } },
{ "type": "Feature", "properties": { "station_id": "MUM_RAIL_STN_003", "station_name": "Charni Road", "longitude": 72.818570683694702, "latitude": 18.9517165867492, "source": "BMC via OpenCity.in", "source_file": "mumbai_suburban_stations.kml", "source_url": "https://data.opencity.in/dataset/mumbai-suburban-network-2025" }, "geometry": { "type": "Point", "coordinates": [ 72.818570683694702, 18.9517165867492 ] } },
{ "type": "Feature", "properties": { "station_id": "MUM_RAIL_STN_004", "station_name": "Grant Road", "longitude": 72.816178383285504, "latitude": 18.9637045605152, "source": "BMC via OpenCity.in", "source_file": "mumbai_suburban_stations.kml", "source_url": "https://data.opencity.in/dataset/mumbai-suburban-network-2025" }, "geometry": { "type": "Point", "coordinates": [ 72.816178383285504, 18.9637045605152 ] } },
{ "type": "Feature", "properties": { "station_id": "MUM_RAIL_STN_005", "station_name": "Mumbai Central", "longitude": 72.818798803605702, "latitude": 18.969893271368498, "source": "BMC via OpenCity.in", "source_file": "mumbai_suburban_stations.kml", "source_url": "https://data.opencity.in/dataset/mumbai-suburban-network-2025" }, "geometry": { "type": "Point", "coordinates": [ 72.818798803605702, 18.969893271368498 ] } },
{ "type": "Feature", "properties": { "station_id": "MUM_RAIL_STN_006", "station_name": "Mahalaxmi", "longitude": 72.824153711125803, "latitude": 18.982273797928201, "source": "BMC via OpenCity.in", "source_file": "mumbai_suburban_stations.kml", "source_url": "https://data.opencity.in/dataset/mumbai-suburban-network-2025" }, "geometry": { "type": "Point", "coordinates": [ 72.824153711125803, 18.982273797928201 ] } },
{ "type": "Feature", "properties": { "station_id": "MUM_RAIL_STN_007", "station_name": "Lower Parel", "longitude": 72.830172471783001, "latitude": 18.995318707951899, "source": "BMC via OpenCity.in", "source_file": "mumbai_suburban_stations.kml", "source_url": "https://data.opencity.in/dataset/mumbai-suburban-network-2025" }, "geometry": { "type": "Point", "coordinates": [ 72.830172471783001, 18.995318707951899 ] } },
{ "type": "Feature", "properties": { "station_id": "MUM_RAIL_STN_008", "station_name": "Prabhadevi", "longitude": 72.836113204662396, "latitude": 19.0075631386431, "source": "BMC via OpenCity.in", "source_file": "mumbai_suburban_stations.kml", "source_url": "https://data.opencity.in/dataset/mumbai-suburban-network-2025" }, "geometry": { "type": "Point", "coordinates": [ 72.836113204662396, 19.0075631386431 ] } },
{ "type": "Feature", "properties": { "station_id": "MUM_RAIL_STN_009", "station_name": "Dadar", "longitude": 72.8431374888969, "latitude": 19.019560876215699, "source": "BMC via OpenCity.in", "source_file": "mumbai_suburban_stations.kml", "source_url": "https://data.opencity.in/dataset/mumbai-suburban-network-2025" }, "geometry": { "type": "Point", "coordinates": [ 72.8431374888969, 19.019560876215699 ] } },
{ "type": "Feature", "properties": { "station_id": "MUM_RAIL_STN_010", "station_name": "Matunga Road", "longitude": 72.846928950376395, "latitude": 19.028368597856002, "source": "BMC via OpenCity.in", "source_file": "mumbai_suburban_stations.kml", "source_url": "https://data.opencity.in/dataset/mumbai-suburban-network-2025" }, "geometry": { "type": "Point", "coordinates": [ 72.846928950376395, 19.028368597856002 ] } },
{ "type": "Feature", "properties": { "station_id": "MUM_RAIL_STN_011", "station_name": "Mahim Junction", "longitude": 72.846918388193302, "latitude": 19.040716517381998, "source": "BMC via OpenCity.in", "source_file": "mumbai_suburban_stations.kml", "source_url": "https://data.opencity.in/dataset/mumbai-suburban-network-2025" }, "geometry": { "type": "Point", "coordinates": [ 72.846918388193302, 19.040716517381998 ] } },
{ "type": "Feature", "properties": { "station_id": "MUM_RAIL_STN_012", "station_name": "Bandra", "longitude": 72.840328237092095, "latitude": 19.055589233347099, "source": "BMC via OpenCity.in", "source_file": "mumbai_suburban_stations.kml", "source_url": "https://data.opencity.in/dataset/mumbai-suburban-network-2025" }, "geometry": { "type": "Point", "coordinates": [ 72.840328237092095, 19.055589233347099 ] } },
{ "type": "Feature", "properties": { "station_id": "MUM_RAIL_STN_013", "station_name": "Khar Road", "longitude": 72.840127725226694, "latitude": 19.0698951076843, "source": "BMC via OpenCity.in", "source_file": "mumbai_suburban_stations.kml", "source_url": "https://data.opencity.in/dataset/mumbai-suburban-network-2025" }, "geometry": { "type": "Point", "coordinates": [ 72.840127725226694, 19.0698951076843 ] } },
{ "type": "Feature", "properties": { "station_id": "MUM_RAIL_STN_014", "station_name": "Santacruz", "longitude": 72.841780767367396, "latitude": 19.082598527372699, "source": "BMC via OpenCity.in", "source_file": "mumbai_suburban_stations.kml", "source_url": "https://data.opencity.in/dataset/mumbai-suburban-network-2025" }, "geometry": { "type": "Point", "coordinates": [ 72.841780767367396, 19.082598527372699 ] } },
{ "type": "Feature", "properties": { "station_id": "MUM_RAIL_STN_015", "station_name": "Vile Parle", "longitude": 72.843999674209599, "latitude": 19.099739356548099, "source": "BMC via OpenCity.in", "source_file": "mumbai_suburban_stations.kml", "source_url": "https://data.opencity.in/dataset/mumbai-suburban-network-2025" }, "geometry": { "type": "Point", "coordinates": [ 72.843999674209599, 19.099739356548099 ] } },
{ "type": "Feature", "properties": { "station_id": "MUM_RAIL_STN_016", "station_name": "Andheri", "longitude": 72.846503970766605, "latitude": 19.117174794717801, "source": "BMC via OpenCity.in", "source_file": "mumbai_suburban_stations.kml", "source_url": "https://data.opencity.in/dataset/mumbai-suburban-network-2025" }, "geometry": { "type": "Point", "coordinates": [ 72.846503970766605, 19.117174794717801 ] } },
{ "type": "Feature", "properties": { "station_id": "MUM_RAIL_STN_017", "station_name": "Jogeshwari", "longitude": 72.848973670846107, "latitude": 19.136532651905299, "source": "BMC via OpenCity.in", "source_file": "mumbai_suburban_stations.kml", "source_url": "https://data.opencity.in/dataset/mumbai-suburban-network-2025" }, "geometry": { "type": "Point", "coordinates": [ 72.848973670846107, 19.136532651905299 ] } },
{ "type": "Feature", "properties": { "station_id": "MUM_RAIL_STN_018", "station_name": "Goregaon", "longitude": 72.849628247985606, "latitude": 19.164870281521299, "source": "BMC via OpenCity.in", "source_file": "mumbai_suburban_stations.kml", "source_url": "https://data.opencity.in/dataset/mumbai-suburban-network-2025" }, "geometry": { "type": "Point", "coordinates": [ 72.849628247985606, 19.164870281521299 ] } },
{ "type": "Feature", "properties": { "station_id": "MUM_RAIL_STN_019", "station_name": "Malad", "longitude": 72.8489362808279, "latitude": 19.186833561700599, "source": "BMC via OpenCity.in", "source_file": "mumbai_suburban_stations.kml", "source_url": "https://data.opencity.in/dataset/mumbai-suburban-network-2025" }, "geometry": { "type": "Point", "coordinates": [ 72.8489362808279, 19.186833561700599 ] } },
{ "type": "Feature", "properties": { "station_id": "MUM_RAIL_STN_020", "station_name": "Kandivali", "longitude": 72.852051229979395, "latitude": 19.204532076163801, "source": "BMC via OpenCity.in", "source_file": "mumbai_suburban_stations.kml", "source_url": "https://data.opencity.in/dataset/mumbai-suburban-network-2025" }, "geometry": { "type": "Point", "coordinates": [ 72.852051229979395, 19.204532076163801 ] } },
{ "type": "Feature", "properties": { "station_id": "MUM_RAIL_STN_021", "station_name": "Borivali", "longitude": 72.856648903057305, "latitude": 19.229063421748801, "source": "BMC via OpenCity.in", "source_file": "mumbai_suburban_stations.kml", "source_url": "https://data.opencity.in/dataset/mumbai-suburban-network-2025" }, "geometry": { "type": "Point", "coordinates": [ 72.856648903057305, 19.229063421748801 ] } },
{ "type": "Feature", "properties": { "station_id": "MUM_RAIL_STN_022", "station_name": "Dahisar", "longitude": 72.859281471016899, "latitude": 19.2500070403722, "source": "BMC via OpenCity.in", "source_file": "mumbai_suburban_stations.kml", "source_url": "https://data.opencity.in/dataset/mumbai-suburban-network-2025" }, "geometry": { "type": "Point", "coordinates": [ 72.859281471016899, 19.2500070403722 ] } },
{ "type": "Feature", "properties": { "station_id": "MUM_RAIL_STN_023", "station_name": "CSMT", "longitude": 72.835705977925599, "latitude": 18.940272028573801, "source": "BMC via OpenCity.in", "source_file": "mumbai_suburban_stations.kml", "source_url": "https://data.opencity.in/dataset/mumbai-suburban-network-2025" }, "geometry": { "type": "Point", "coordinates": [ 72.835705977925599, 18.940272028573801 ] } },
{ "type": "Feature", "properties": { "station_id": "MUM_RAIL_STN_024", "station_name": "Masjid Bunder", "longitude": 72.838199765840102, "latitude": 18.952091539094202, "source": "BMC via OpenCity.in", "source_file": "mumbai_suburban_stations.kml", "source_url": "https://data.opencity.in/dataset/mumbai-suburban-network-2025" }, "geometry": { "type": "Point", "coordinates": [ 72.838199765840102, 18.952091539094202 ] } },
{ "type": "Feature", "properties": { "station_id": "MUM_RAIL_STN_025", "station_name": "Sandhurst Road", "longitude": 72.8395788297954, "latitude": 18.960878542907501, "source": "BMC via OpenCity.in", "source_file": "mumbai_suburban_stations.kml", "source_url": "https://data.opencity.in/dataset/mumbai-suburban-network-2025" }, "geometry": { "type": "Point", "coordinates": [ 72.8395788297954, 18.960878542907501 ] } },
{ "type": "Feature", "properties": { "station_id": "MUM_RAIL_STN_026", "station_name": "Byculla", "longitude": 72.832769006805293, "latitude": 18.976692518895, "source": "BMC via OpenCity.in", "source_file": "mumbai_suburban_stations.kml", "source_url": "https://data.opencity.in/dataset/mumbai-suburban-network-2025" }, "geometry": { "type": "Point", "coordinates": [ 72.832769006805293, 18.976692518895 ] } },
{ "type": "Feature", "properties": { "station_id": "MUM_RAIL_STN_027", "station_name": "Chinchpokali", "longitude": 72.832901342804405, "latitude": 18.987046948797602, "source": "BMC via OpenCity.in", "source_file": "mumbai_suburban_stations.kml", "source_url": "https://data.opencity.in/dataset/mumbai-suburban-network-2025" }, "geometry": { "type": "Point", "coordinates": [ 72.832901342804405, 18.987046948797602 ] } },
{ "type": "Feature", "properties": { "station_id": "MUM_RAIL_STN_028", "station_name": "Currey Road", "longitude": 72.832998766517207, "latitude": 18.994110482722999, "source": "BMC via OpenCity.in", "source_file": "mumbai_suburban_stations.kml", "source_url": "https://data.opencity.in/dataset/mumbai-suburban-network-2025" }, "geometry": { "type": "Point", "coordinates": [ 72.832998766517207, 18.994110482722999 ] } },
{ "type": "Feature", "properties": { "station_id": "MUM_RAIL_STN_029", "station_name": "Parel", "longitude": 72.837625900403793, "latitude": 19.009244017842502, "source": "BMC via OpenCity.in", "source_file": "mumbai_suburban_stations.kml", "source_url": "https://data.opencity.in/dataset/mumbai-suburban-network-2025" }, "geometry": { "type": "Point", "coordinates": [ 72.837625900403793, 19.009244017842502 ] } },
{ "type": "Feature", "properties": { "station_id": "MUM_RAIL_STN_030", "station_name": "Dadar", "longitude": 72.843633420995999, "latitude": 19.018143536538901, "source": "BMC via OpenCity.in", "source_file": "mumbai_suburban_stations.kml", "source_url": "https://data.opencity.in/dataset/mumbai-suburban-network-2025" }, "geometry": { "type": "Point", "coordinates": [ 72.843633420995999, 19.018143536538901 ] } },
{ "type": "Feature", "properties": { "station_id": "MUM_RAIL_STN_031", "station_name": "Matunga", "longitude": 72.850208401480401, "latitude": 19.027496105090499, "source": "BMC via OpenCity.in", "source_file": "mumbai_suburban_stations.kml", "source_url": "https://data.opencity.in/dataset/mumbai-suburban-network-2025" }, "geometry": { "type": "Point", "coordinates": [ 72.850208401480401, 19.027496105090499 ] } },
{ "type": "Feature", "properties": { "station_id": "MUM_RAIL_STN_032", "station_name": "Sion", "longitude": 72.864003701267606, "latitude": 19.047709729102699, "source": "BMC via OpenCity.in", "source_file": "mumbai_suburban_stations.kml", "source_url": "https://data.opencity.in/dataset/mumbai-suburban-network-2025" }, "geometry": { "type": "Point", "coordinates": [ 72.864003701267606, 19.047709729102699 ] } },
{ "type": "Feature", "properties": { "station_id": "MUM_RAIL_STN_033", "station_name": "Kurla", "longitude": 72.879354330377794, "latitude": 19.065477478693602, "source": "BMC via OpenCity.in", "source_file": "mumbai_suburban_stations.kml", "source_url": "https://data.opencity.in/dataset/mumbai-suburban-network-2025" }, "geometry": { "type": "Point", "coordinates": [ 72.879354330377794, 19.065477478693602 ] } },
{ "type": "Feature", "properties": { "station_id": "MUM_RAIL_STN_034", "station_name": "Vidyavihar", "longitude": 72.897579979142094, "latitude": 19.0796208736982, "source": "BMC via OpenCity.in", "source_file": "mumbai_suburban_stations.kml", "source_url": "https://data.opencity.in/dataset/mumbai-suburban-network-2025" }, "geometry": { "type": "Point", "coordinates": [ 72.897579979142094, 19.0796208736982 ] } },
{ "type": "Feature", "properties": { "station_id": "MUM_RAIL_STN_035", "station_name": "Ghatkopar", "longitude": 72.908465787874405, "latitude": 19.085989064281701, "source": "BMC via OpenCity.in", "source_file": "mumbai_suburban_stations.kml", "source_url": "https://data.opencity.in/dataset/mumbai-suburban-network-2025" }, "geometry": { "type": "Point", "coordinates": [ 72.908465787874405, 19.085989064281701 ] } },
{ "type": "Feature", "properties": { "station_id": "MUM_RAIL_STN_036", "station_name": "Vikhroli", "longitude": 72.928145086953904, "latitude": 19.111917768973299, "source": "BMC via OpenCity.in", "source_file": "mumbai_suburban_stations.kml", "source_url": "https://data.opencity.in/dataset/mumbai-suburban-network-2025" }, "geometry": { "type": "Point", "coordinates": [ 72.928145086953904, 19.111917768973299 ] } },
{ "type": "Feature", "properties": { "station_id": "MUM_RAIL_STN_037", "station_name": "Kanjur Marg", "longitude": 72.928151133722096, "latitude": 19.128166320161998, "source": "BMC via OpenCity.in", "source_file": "mumbai_suburban_stations.kml", "source_url": "https://data.opencity.in/dataset/mumbai-suburban-network-2025" }, "geometry": { "type": "Point", "coordinates": [ 72.928151133722096, 19.128166320161998 ] } },
{ "type": "Feature", "properties": { "station_id": "MUM_RAIL_STN_038", "station_name": "Bhandup", "longitude": 72.937651310734907, "latitude": 19.142435155052102, "source": "BMC via OpenCity.in", "source_file": "mumbai_suburban_stations.kml", "source_url": "https://data.opencity.in/dataset/mumbai-suburban-network-2025" }, "geometry": { "type": "Point", "coordinates": [ 72.937651310734907, 19.142435155052102 ] } },
{ "type": "Feature", "properties": { "station_id": "MUM_RAIL_STN_039", "station_name": "Nahur", "longitude": 72.946766137471002, "latitude": 19.154625137782499, "source": "BMC via OpenCity.in", "source_file": "mumbai_suburban_stations.kml", "source_url": "https://data.opencity.in/dataset/mumbai-suburban-network-2025" }, "geometry": { "type": "Point", "coordinates": [ 72.946766137471002, 19.154625137782499 ] } },
{ "type": "Feature", "properties": { "station_id": "MUM_RAIL_STN_040", "station_name": "Mulund", "longitude": 72.956553404896297, "latitude": 19.171866266688198, "source": "BMC via OpenCity.in", "source_file": "mumbai_suburban_stations.kml", "source_url": "https://data.opencity.in/dataset/mumbai-suburban-network-2025" }, "geometry": { "type": "Point", "coordinates": [ 72.956553404896297, 19.171866266688198 ] } },
{ "type": "Feature", "properties": { "station_id": "MUM_RAIL_STN_041", "station_name": "Dockyard Road", "longitude": 72.844311485027703, "latitude": 18.9665629111886, "source": "BMC via OpenCity.in", "source_file": "mumbai_suburban_stations.kml", "source_url": "https://data.opencity.in/dataset/mumbai-suburban-network-2025" }, "geometry": { "type": "Point", "coordinates": [ 72.844311485027703, 18.9665629111886 ] } },
{ "type": "Feature", "properties": { "station_id": "MUM_RAIL_STN_042", "station_name": "Ray Road", "longitude": 72.844248179754103, "latitude": 18.977368348247399, "source": "BMC via OpenCity.in", "source_file": "mumbai_suburban_stations.kml", "source_url": "https://data.opencity.in/dataset/mumbai-suburban-network-2025" }, "geometry": { "type": "Point", "coordinates": [ 72.844248179754103, 18.977368348247399 ] } },
{ "type": "Feature", "properties": { "station_id": "MUM_RAIL_STN_043", "station_name": "Cotton Green", "longitude": 72.843289329348195, "latitude": 18.9864939574943, "source": "BMC via OpenCity.in", "source_file": "mumbai_suburban_stations.kml", "source_url": "https://data.opencity.in/dataset/mumbai-suburban-network-2025" }, "geometry": { "type": "Point", "coordinates": [ 72.843289329348195, 18.9864939574943 ] } },
{ "type": "Feature", "properties": { "station_id": "MUM_RAIL_STN_044", "station_name": "Sewri", "longitude": 72.854579130035006, "latitude": 18.998931375264501, "source": "BMC via OpenCity.in", "source_file": "mumbai_suburban_stations.kml", "source_url": "https://data.opencity.in/dataset/mumbai-suburban-network-2025" }, "geometry": { "type": "Point", "coordinates": [ 72.854579130035006, 18.998931375264501 ] } },
{ "type": "Feature", "properties": { "station_id": "MUM_RAIL_STN_045", "station_name": "Wadala Road", "longitude": 72.858942480324401, "latitude": 19.016006309249001, "source": "BMC via OpenCity.in", "source_file": "mumbai_suburban_stations.kml", "source_url": "https://data.opencity.in/dataset/mumbai-suburban-network-2025" }, "geometry": { "type": "Point", "coordinates": [ 72.858942480324401, 19.016006309249001 ] } },
{ "type": "Feature", "properties": { "station_id": "MUM_RAIL_STN_046", "station_name": "Guru Tej Bahadur Nagar", "longitude": 72.8643611543405, "latitude": 19.0380290585816, "source": "BMC via OpenCity.in", "source_file": "mumbai_suburban_stations.kml", "source_url": "https://data.opencity.in/dataset/mumbai-suburban-network-2025" }, "geometry": { "type": "Point", "coordinates": [ 72.8643611543405, 19.0380290585816 ] } },
{ "type": "Feature", "properties": { "station_id": "MUM_RAIL_STN_047", "station_name": "Chunna Bhatti", "longitude": 72.868945644649799, "latitude": 19.0517072445659, "source": "BMC via OpenCity.in", "source_file": "mumbai_suburban_stations.kml", "source_url": "https://data.opencity.in/dataset/mumbai-suburban-network-2025" }, "geometry": { "type": "Point", "coordinates": [ 72.868945644649799, 19.0517072445659 ] } },
{ "type": "Feature", "properties": { "station_id": "MUM_RAIL_STN_048", "station_name": "Tilak Nagar", "longitude": 72.889976202004306, "latitude": 19.065780301323301, "source": "BMC via OpenCity.in", "source_file": "mumbai_suburban_stations.kml", "source_url": "https://data.opencity.in/dataset/mumbai-suburban-network-2025" }, "geometry": { "type": "Point", "coordinates": [ 72.889976202004306, 19.065780301323301 ] } },
{ "type": "Feature", "properties": { "station_id": "MUM_RAIL_STN_049", "station_name": "Chembur", "longitude": 72.901244136258896, "latitude": 19.062597617470502, "source": "BMC via OpenCity.in", "source_file": "mumbai_suburban_stations.kml", "source_url": "https://data.opencity.in/dataset/mumbai-suburban-network-2025" }, "geometry": { "type": "Point", "coordinates": [ 72.901244136258896, 19.062597617470502 ] } },
{ "type": "Feature", "properties": { "station_id": "MUM_RAIL_STN_050", "station_name": "Govandi", "longitude": 72.915394302725304, "latitude": 19.055093224373898, "source": "BMC via OpenCity.in", "source_file": "mumbai_suburban_stations.kml", "source_url": "https://data.opencity.in/dataset/mumbai-suburban-network-2025" }, "geometry": { "type": "Point", "coordinates": [ 72.915394302725304, 19.055093224373898 ] } },
{ "type": "Feature", "properties": { "station_id": "MUM_RAIL_STN_051", "station_name": "Mankhurd", "longitude": 72.931724149186607, "latitude": 19.048165021961399, "source": "BMC via OpenCity.in", "source_file": "mumbai_suburban_stations.kml", "source_url": "https://data.opencity.in/dataset/mumbai-suburban-network-2025" }, "geometry": { "type": "Point", "coordinates": [ 72.931724149186607, 19.048165021961399 ] } },
{ "type": "Feature", "properties": { "station_id": "MUM_RAIL_STN_052", "station_name": "Kings Circle", "longitude": 72.857169039735894, "latitude": 19.032266486954999, "source": "BMC via OpenCity.in", "source_file": "mumbai_suburban_stations.kml", "source_url": "https://data.opencity.in/dataset/mumbai-suburban-network-2025" }, "geometry": { "type": "Point", "coordinates": [ 72.857169039735894, 19.032266486954999 ] } },
{ "type": "Feature", "properties": { "station_id": "MUM_RAIL_STN_053", "station_name": "Mira Road", "longitude": 72.856097204531196, "latitude": 19.2797406943242, "source": "BMC via OpenCity.in", "source_file": "mumbai_suburban_stations.kml", "source_url": "https://data.opencity.in/dataset/mumbai-suburban-network-2025" }, "geometry": { "type": "Point", "coordinates": [ 72.856097204531196, 19.2797406943242 ] } },
{ "type": "Feature", "properties": { "station_id": "MUM_RAIL_STN_054", "station_name": "Bhayandar", "longitude": 72.852570447722599, "latitude": 19.311439222710899, "source": "BMC via OpenCity.in", "source_file": "mumbai_suburban_stations.kml", "source_url": "https://data.opencity.in/dataset/mumbai-suburban-network-2025" }, "geometry": { "type": "Point", "coordinates": [ 72.852570447722599, 19.311439222710899 ] } },
{ "type": "Feature", "properties": { "station_id": "MUM_RAIL_STN_055", "station_name": "Naigaon", "longitude": 72.846283294864506, "latitude": 19.3513074099099, "source": "BMC via OpenCity.in", "source_file": "mumbai_suburban_stations.kml", "source_url": "https://data.opencity.in/dataset/mumbai-suburban-network-2025" }, "geometry": { "type": "Point", "coordinates": [ 72.846283294864506, 19.3513074099099 ] } },
{ "type": "Feature", "properties": { "station_id": "MUM_RAIL_STN_056", "station_name": "Vasai Road", "longitude": 72.832146104192603, "latitude": 19.382380272105301, "source": "BMC via OpenCity.in", "source_file": "mumbai_suburban_stations.kml", "source_url": "https://data.opencity.in/dataset/mumbai-suburban-network-2025" }, "geometry": { "type": "Point", "coordinates": [ 72.832146104192603, 19.382380272105301 ] } },
{ "type": "Feature", "properties": { "station_id": "MUM_RAIL_STN_057", "station_name": "Nallasopara", "longitude": 72.818914564419501, "latitude": 19.417675516607702, "source": "BMC via OpenCity.in", "source_file": "mumbai_suburban_stations.kml", "source_url": "https://data.opencity.in/dataset/mumbai-suburban-network-2025" }, "geometry": { "type": "Point", "coordinates": [ 72.818914564419501, 19.417675516607702 ] } },
{ "type": "Feature", "properties": { "station_id": "MUM_RAIL_STN_058", "station_name": "Virar", "longitude": 72.811928486323595, "latitude": 19.454999518251601, "source": "BMC via OpenCity.in", "source_file": "mumbai_suburban_stations.kml", "source_url": "https://data.opencity.in/dataset/mumbai-suburban-network-2025" }, "geometry": { "type": "Point", "coordinates": [ 72.811928486323595, 19.454999518251601 ] } },
{ "type": "Feature", "properties": { "station_id": "MUM_RAIL_STN_059", "station_name": "Vashi", "longitude": 72.998896563249502, "latitude": 19.063117220706399, "source": "BMC via OpenCity.in", "source_file": "mumbai_suburban_stations.kml", "source_url": "https://data.opencity.in/dataset/mumbai-suburban-network-2025" }, "geometry": { "type": "Point", "coordinates": [ 72.998896563249502, 19.063117220706399 ] } },
{ "type": "Feature", "properties": { "station_id": "MUM_RAIL_STN_060", "station_name": "Sanpada", "longitude": 73.009349314231898, "latitude": 19.066114778872102, "source": "BMC via OpenCity.in", "source_file": "mumbai_suburban_stations.kml", "source_url": "https://data.opencity.in/dataset/mumbai-suburban-network-2025" }, "geometry": { "type": "Point", "coordinates": [ 73.009349314231898, 19.066114778872102 ] } },
{ "type": "Feature", "properties": { "station_id": "MUM_RAIL_STN_061", "station_name": "Juinagar", "longitude": 73.018390343925901, "latitude": 19.0556163409323, "source": "BMC via OpenCity.in", "source_file": "mumbai_suburban_stations.kml", "source_url": "https://data.opencity.in/dataset/mumbai-suburban-network-2025" }, "geometry": { "type": "Point", "coordinates": [ 73.018390343925901, 19.0556163409323 ] } },
{ "type": "Feature", "properties": { "station_id": "MUM_RAIL_STN_062", "station_name": "Nerul", "longitude": 73.018210781598199, "latitude": 19.033470781817702, "source": "BMC via OpenCity.in", "source_file": "mumbai_suburban_stations.kml", "source_url": "https://data.opencity.in/dataset/mumbai-suburban-network-2025" }, "geometry": { "type": "Point", "coordinates": [ 73.018210781598199, 19.033470781817702 ] } },
{ "type": "Feature", "properties": { "station_id": "MUM_RAIL_STN_063", "station_name": "Seawoods", "longitude": 73.019142420645807, "latitude": 19.021943875515898, "source": "BMC via OpenCity.in", "source_file": "mumbai_suburban_stations.kml", "source_url": "https://data.opencity.in/dataset/mumbai-suburban-network-2025" }, "geometry": { "type": "Point", "coordinates": [ 73.019142420645807, 19.021943875515898 ] } },
{ "type": "Feature", "properties": { "station_id": "MUM_RAIL_STN_064", "station_name": "CBD Belapur", "longitude": 73.039087333902799, "latitude": 19.019045643613499, "source": "BMC via OpenCity.in", "source_file": "mumbai_suburban_stations.kml", "source_url": "https://data.opencity.in/dataset/mumbai-suburban-network-2025" }, "geometry": { "type": "Point", "coordinates": [ 73.039087333902799, 19.019045643613499 ] } },
{ "type": "Feature", "properties": { "station_id": "MUM_RAIL_STN_065", "station_name": "Kharghar", "longitude": 73.059396939458694, "latitude": 19.026119421545399, "source": "BMC via OpenCity.in", "source_file": "mumbai_suburban_stations.kml", "source_url": "https://data.opencity.in/dataset/mumbai-suburban-network-2025" }, "geometry": { "type": "Point", "coordinates": [ 73.059396939458694, 19.026119421545399 ] } },
{ "type": "Feature", "properties": { "station_id": "MUM_RAIL_STN_066", "station_name": "Mansarovar", "longitude": 73.080470185441499, "latitude": 19.016653981718498, "source": "BMC via OpenCity.in", "source_file": "mumbai_suburban_stations.kml", "source_url": "https://data.opencity.in/dataset/mumbai-suburban-network-2025" }, "geometry": { "type": "Point", "coordinates": [ 73.080470185441499, 19.016653981718498 ] } },
{ "type": "Feature", "properties": { "station_id": "MUM_RAIL_STN_067", "station_name": "Khandeshwar", "longitude": 73.094759818855294, "latitude": 19.007467986750701, "source": "BMC via OpenCity.in", "source_file": "mumbai_suburban_stations.kml", "source_url": "https://data.opencity.in/dataset/mumbai-suburban-network-2025" }, "geometry": { "type": "Point", "coordinates": [ 73.094759818855294, 19.007467986750701 ] } },
{ "type": "Feature", "properties": { "station_id": "MUM_RAIL_STN_068", "station_name": "Panvel", "longitude": 73.121341448835807, "latitude": 18.990570025437801, "source": "BMC via OpenCity.in", "source_file": "mumbai_suburban_stations.kml", "source_url": "https://data.opencity.in/dataset/mumbai-suburban-network-2025" }, "geometry": { "type": "Point", "coordinates": [ 73.121341448835807, 18.990570025437801 ] } },
{ "type": "Feature", "properties": { "station_id": "MUM_RAIL_STN_069", "station_name": "Turbhe", "longitude": 73.017716630742299, "latitude": 19.0760002886039, "source": "BMC via OpenCity.in", "source_file": "mumbai_suburban_stations.kml", "source_url": "https://data.opencity.in/dataset/mumbai-suburban-network-2025" }, "geometry": { "type": "Point", "coordinates": [ 73.017716630742299, 19.0760002886039 ] } },
{ "type": "Feature", "properties": { "station_id": "MUM_RAIL_STN_070", "station_name": "Kopar Kharine", "longitude": 73.011342315055998, "latitude": 19.103216009614499, "source": "BMC via OpenCity.in", "source_file": "mumbai_suburban_stations.kml", "source_url": "https://data.opencity.in/dataset/mumbai-suburban-network-2025" }, "geometry": { "type": "Point", "coordinates": [ 73.011342315055998, 19.103216009614499 ] } },
{ "type": "Feature", "properties": { "station_id": "MUM_RAIL_STN_071", "station_name": "Ghansoli", "longitude": 73.006889469869705, "latitude": 19.116480590616401, "source": "BMC via OpenCity.in", "source_file": "mumbai_suburban_stations.kml", "source_url": "https://data.opencity.in/dataset/mumbai-suburban-network-2025" }, "geometry": { "type": "Point", "coordinates": [ 73.006889469869705, 19.116480590616401 ] } },
{ "type": "Feature", "properties": { "station_id": "MUM_RAIL_STN_072", "station_name": "Rabale", "longitude": 73.002716693833705, "latitude": 19.137019208183101, "source": "BMC via OpenCity.in", "source_file": "mumbai_suburban_stations.kml", "source_url": "https://data.opencity.in/dataset/mumbai-suburban-network-2025" }, "geometry": { "type": "Point", "coordinates": [ 73.002716693833705, 19.137019208183101 ] } },
{ "type": "Feature", "properties": { "station_id": "MUM_RAIL_STN_073", "station_name": "Airoli", "longitude": 72.999379568786395, "latitude": 19.158530944850799, "source": "BMC via OpenCity.in", "source_file": "mumbai_suburban_stations.kml", "source_url": "https://data.opencity.in/dataset/mumbai-suburban-network-2025" }, "geometry": { "type": "Point", "coordinates": [ 72.999379568786395, 19.158530944850799 ] } },
{ "type": "Feature", "properties": { "station_id": "MUM_RAIL_STN_074", "station_name": "Thane", "longitude": 72.975933729052599, "latitude": 19.186115257420699, "source": "BMC via OpenCity.in", "source_file": "mumbai_suburban_stations.kml", "source_url": "https://data.opencity.in/dataset/mumbai-suburban-network-2025" }, "geometry": { "type": "Point", "coordinates": [ 72.975933729052599, 19.186115257420699 ] } },
{ "type": "Feature", "properties": { "station_id": "MUM_RAIL_STN_075", "station_name": "Kalwa", "longitude": 72.998674736621396, "latitude": 19.196903281279202, "source": "BMC via OpenCity.in", "source_file": "mumbai_suburban_stations.kml", "source_url": "https://data.opencity.in/dataset/mumbai-suburban-network-2025" }, "geometry": { "type": "Point", "coordinates": [ 72.998674736621396, 19.196903281279202 ] } },
{ "type": "Feature", "properties": { "station_id": "MUM_RAIL_STN_076", "station_name": "Mumbra", "longitude": 73.023139729651106, "latitude": 19.190274254286798, "source": "BMC via OpenCity.in", "source_file": "mumbai_suburban_stations.kml", "source_url": "https://data.opencity.in/dataset/mumbai-suburban-network-2025" }, "geometry": { "type": "Point", "coordinates": [ 73.023139729651106, 19.190274254286798 ] } },
{ "type": "Feature", "properties": { "station_id": "MUM_RAIL_STN_077", "station_name": "Diva", "longitude": 73.042951452120704, "latitude": 19.188950266990702, "source": "BMC via OpenCity.in", "source_file": "mumbai_suburban_stations.kml", "source_url": "https://data.opencity.in/dataset/mumbai-suburban-network-2025" }, "geometry": { "type": "Point", "coordinates": [ 73.042951452120704, 19.188950266990702 ] } },
{ "type": "Feature", "properties": { "station_id": "MUM_RAIL_STN_078", "station_name": "Lower Kopar", "longitude": 73.076978844046906, "latitude": 19.2106220863616, "source": "BMC via OpenCity.in", "source_file": "mumbai_suburban_stations.kml", "source_url": "https://data.opencity.in/dataset/mumbai-suburban-network-2025" }, "geometry": { "type": "Point", "coordinates": [ 73.076978844046906, 19.2106220863616 ] } },
{ "type": "Feature", "properties": { "station_id": "MUM_RAIL_STN_079", "station_name": "Dombivili", "longitude": 73.086843018190194, "latitude": 19.218286062568001, "source": "BMC via OpenCity.in", "source_file": "mumbai_suburban_stations.kml", "source_url": "https://data.opencity.in/dataset/mumbai-suburban-network-2025" }, "geometry": { "type": "Point", "coordinates": [ 73.086843018190194, 19.218286062568001 ] } },
{ "type": "Feature", "properties": { "station_id": "MUM_RAIL_STN_080", "station_name": "Thakurli", "longitude": 73.097932294671494, "latitude": 19.226001847866598, "source": "BMC via OpenCity.in", "source_file": "mumbai_suburban_stations.kml", "source_url": "https://data.opencity.in/dataset/mumbai-suburban-network-2025" }, "geometry": { "type": "Point", "coordinates": [ 73.097932294671494, 19.226001847866598 ] } },
{ "type": "Feature", "properties": { "station_id": "MUM_RAIL_STN_081", "station_name": "Kalyan", "longitude": 73.129971128228902, "latitude": 19.2351909402425, "source": "BMC via OpenCity.in", "source_file": "mumbai_suburban_stations.kml", "source_url": "https://data.opencity.in/dataset/mumbai-suburban-network-2025" }, "geometry": { "type": "Point", "coordinates": [ 73.129971128228902, 19.2351909402425 ] } },
{ "type": "Feature", "properties": { "station_id": "MUM_RAIL_STN_082", "station_name": "Vithalwadi", "longitude": 73.149256984110806, "latitude": 19.228272239058501, "source": "BMC via OpenCity.in", "source_file": "mumbai_suburban_stations.kml", "source_url": "https://data.opencity.in/dataset/mumbai-suburban-network-2025" }, "geometry": { "type": "Point", "coordinates": [ 73.149256984110806, 19.228272239058501 ] } },
{ "type": "Feature", "properties": { "station_id": "MUM_RAIL_STN_083", "station_name": "Ulhas Nagar", "longitude": 73.163103218806498, "latitude": 19.21808971954, "source": "BMC via OpenCity.in", "source_file": "mumbai_suburban_stations.kml", "source_url": "https://data.opencity.in/dataset/mumbai-suburban-network-2025" }, "geometry": { "type": "Point", "coordinates": [ 73.163103218806498, 19.21808971954 ] } },
{ "type": "Feature", "properties": { "station_id": "MUM_RAIL_STN_084", "station_name": "Ambernath", "longitude": 73.184431740022205, "latitude": 19.210130548055499, "source": "BMC via OpenCity.in", "source_file": "mumbai_suburban_stations.kml", "source_url": "https://data.opencity.in/dataset/mumbai-suburban-network-2025" }, "geometry": { "type": "Point", "coordinates": [ 73.184431740022205, 19.210130548055499 ] } },
{ "type": "Feature", "properties": { "station_id": "MUM_RAIL_STN_085", "station_name": "Badlapur", "longitude": 73.238802551190304, "latitude": 19.166833136395699, "source": "BMC via OpenCity.in", "source_file": "mumbai_suburban_stations.kml", "source_url": "https://data.opencity.in/dataset/mumbai-suburban-network-2025" }, "geometry": { "type": "Point", "coordinates": [ 73.238802551190304, 19.166833136395699 ] } },
{ "type": "Feature", "properties": { "station_id": "MUM_RAIL_STN_086", "station_name": "Vangani", "longitude": 73.300740528491801, "latitude": 19.094393395303999, "source": "BMC via OpenCity.in", "source_file": "mumbai_suburban_stations.kml", "source_url": "https://data.opencity.in/dataset/mumbai-suburban-network-2025" }, "geometry": { "type": "Point", "coordinates": [ 73.300740528491801, 19.094393395303999 ] } },
{ "type": "Feature", "properties": { "station_id": "MUM_RAIL_STN_087", "station_name": "Shelu", "longitude": 73.317801153335793, "latitude": 19.063414797804601, "source": "BMC via OpenCity.in", "source_file": "mumbai_suburban_stations.kml", "source_url": "https://data.opencity.in/dataset/mumbai-suburban-network-2025" }, "geometry": { "type": "Point", "coordinates": [ 73.317801153335793, 19.063414797804601 ] } },
{ "type": "Feature", "properties": { "station_id": "MUM_RAIL_STN_088", "station_name": "Neral", "longitude": 73.318559529499595, "latitude": 19.0268065536976, "source": "BMC via OpenCity.in", "source_file": "mumbai_suburban_stations.kml", "source_url": "https://data.opencity.in/dataset/mumbai-suburban-network-2025" }, "geometry": { "type": "Point", "coordinates": [ 73.318559529499595, 19.0268065536976 ] } },
{ "type": "Feature", "properties": { "station_id": "MUM_RAIL_STN_089", "station_name": "Bhivpuri Road", "longitude": 73.331477468245495, "latitude": 18.970007203166201, "source": "BMC via OpenCity.in", "source_file": "mumbai_suburban_stations.kml", "source_url": "https://data.opencity.in/dataset/mumbai-suburban-network-2025" }, "geometry": { "type": "Point", "coordinates": [ 73.331477468245495, 18.970007203166201 ] } },
{ "type": "Feature", "properties": { "station_id": "MUM_RAIL_STN_090", "station_name": "Karjat", "longitude": 73.320644322804398, "latitude": 18.908835142839699, "source": "BMC via OpenCity.in", "source_file": "mumbai_suburban_stations.kml", "source_url": "https://data.opencity.in/dataset/mumbai-suburban-network-2025" }, "geometry": { "type": "Point", "coordinates": [ 73.320644322804398, 18.908835142839699 ] } },
{ "type": "Feature", "properties": { "station_id": "MUM_RAIL_STN_091", "station_name": "Palasdhari", "longitude": 73.3208308318587, "latitude": 18.884292710859601, "source": "BMC via OpenCity.in", "source_file": "mumbai_suburban_stations.kml", "source_url": "https://data.opencity.in/dataset/mumbai-suburban-network-2025" }, "geometry": { "type": "Point", "coordinates": [ 73.3208308318587, 18.884292710859601 ] } },
{ "type": "Feature", "properties": { "station_id": "MUM_RAIL_STN_092", "station_name": "Kelavali", "longitude": 73.3187810452539, "latitude": 18.845694583250101, "source": "BMC via OpenCity.in", "source_file": "mumbai_suburban_stations.kml", "source_url": "https://data.opencity.in/dataset/mumbai-suburban-network-2025" }, "geometry": { "type": "Point", "coordinates": [ 73.3187810452539, 18.845694583250101 ] } },
{ "type": "Feature", "properties": { "station_id": "MUM_RAIL_STN_093", "station_name": "Dolavali", "longitude": 73.320062181363497, "latitude": 18.8342636565215, "source": "BMC via OpenCity.in", "source_file": "mumbai_suburban_stations.kml", "source_url": "https://data.opencity.in/dataset/mumbai-suburban-network-2025" }, "geometry": { "type": "Point", "coordinates": [ 73.320062181363497, 18.8342636565215 ] } },
{ "type": "Feature", "properties": { "station_id": "MUM_RAIL_STN_094", "station_name": "Lowjee", "longitude": 73.335435470163404, "latitude": 18.808621421453701, "source": "BMC via OpenCity.in", "source_file": "mumbai_suburban_stations.kml", "source_url": "https://data.opencity.in/dataset/mumbai-suburban-network-2025" }, "geometry": { "type": "Point", "coordinates": [ 73.335435470163404, 18.808621421453701 ] } },
{ "type": "Feature", "properties": { "station_id": "MUM_RAIL_STN_095", "station_name": "Khopoli", "longitude": 73.3448726092399, "latitude": 18.7896170591886, "source": "BMC via OpenCity.in", "source_file": "mumbai_suburban_stations.kml", "source_url": "https://data.opencity.in/dataset/mumbai-suburban-network-2025" }, "geometry": { "type": "Point", "coordinates": [ 73.3448726092399, 18.7896170591886 ] } },
{ "type": "Feature", "properties": { "station_id": "MUM_RAIL_STN_096", "station_name": "Shahad", "longitude": 73.158323156741602, "latitude": 19.244345212188598, "source": "BMC via OpenCity.in", "source_file": "mumbai_suburban_stations.kml", "source_url": "https://data.opencity.in/dataset/mumbai-suburban-network-2025" }, "geometry": { "type": "Point", "coordinates": [ 73.158323156741602, 19.244345212188598 ] } },
{ "type": "Feature", "properties": { "station_id": "MUM_RAIL_STN_097", "station_name": "Ambivili", "longitude": 73.1717128739798, "latitude": 19.267809303216001, "source": "BMC via OpenCity.in", "source_file": "mumbai_suburban_stations.kml", "source_url": "https://data.opencity.in/dataset/mumbai-suburban-network-2025" }, "geometry": { "type": "Point", "coordinates": [ 73.1717128739798, 19.267809303216001 ] } },
{ "type": "Feature", "properties": { "station_id": "MUM_RAIL_STN_098", "station_name": "Titwala", "longitude": 73.203247161912998, "latitude": 19.296877134864001, "source": "BMC via OpenCity.in", "source_file": "mumbai_suburban_stations.kml", "source_url": "https://data.opencity.in/dataset/mumbai-suburban-network-2025" }, "geometry": { "type": "Point", "coordinates": [ 73.203247161912998, 19.296877134864001 ] } },
{ "type": "Feature", "properties": { "station_id": "MUM_RAIL_STN_099", "station_name": "Khadawali", "longitude": 73.218921649979904, "latitude": 19.356849592206501, "source": "BMC via OpenCity.in", "source_file": "mumbai_suburban_stations.kml", "source_url": "https://data.opencity.in/dataset/mumbai-suburban-network-2025" }, "geometry": { "type": "Point", "coordinates": [ 73.218921649979904, 19.356849592206501 ] } },
{ "type": "Feature", "properties": { "station_id": "MUM_RAIL_STN_100", "station_name": "Vasind", "longitude": 73.267665267463101, "latitude": 19.406846451515602, "source": "BMC via OpenCity.in", "source_file": "mumbai_suburban_stations.kml", "source_url": "https://data.opencity.in/dataset/mumbai-suburban-network-2025" }, "geometry": { "type": "Point", "coordinates": [ 73.267665267463101, 19.406846451515602 ] } },
{ "type": "Feature", "properties": { "station_id": "MUM_RAIL_STN_101", "station_name": "Ram Mandir", "longitude": 72.850177953461298, "latitude": 19.1516968179908, "source": "BMC via OpenCity.in", "source_file": "mumbai_suburban_stations.kml", "source_url": "https://data.opencity.in/dataset/mumbai-suburban-network-2025" }, "geometry": { "type": "Point", "coordinates": [ 72.850177953461298, 19.1516968179908 ] } },
{ "type": "Feature", "properties": { "station_id": "MUM_RAIL_STN_102", "station_name": "Vaitarna", "longitude": 72.850271719730699, "latitude": 19.5194475908323, "source": "BMC via OpenCity.in", "source_file": "mumbai_suburban_stations.kml", "source_url": "https://data.opencity.in/dataset/mumbai-suburban-network-2025" }, "geometry": { "type": "Point", "coordinates": [ 72.850271719730699, 19.5194475908323 ] } },
{ "type": "Feature", "properties": { "station_id": "MUM_RAIL_STN_103", "station_name": "Sagar Sangam", "longitude": 73.024790677955295, "latitude": 19.010284070907801, "source": "BMC via OpenCity.in", "source_file": "mumbai_suburban_stations.kml", "source_url": "https://data.opencity.in/dataset/mumbai-suburban-network-2025" }, "geometry": { "type": "Point", "coordinates": [ 73.024790677955295, 19.010284070907801 ] } },
{ "type": "Feature", "properties": { "station_id": "MUM_RAIL_STN_104", "station_name": "Targhar", "longitude": 73.034721010742203, "latitude": 18.990450762853602, "source": "BMC via OpenCity.in", "source_file": "mumbai_suburban_stations.kml", "source_url": "https://data.opencity.in/dataset/mumbai-suburban-network-2025" }, "geometry": { "type": "Point", "coordinates": [ 73.034721010742203, 18.990450762853602 ] } },
{ "type": "Feature", "properties": { "station_id": "MUM_RAIL_STN_105", "station_name": "Bamandongri", "longitude": 73.024040779651898, "latitude": 18.974619535869, "source": "BMC via OpenCity.in", "source_file": "mumbai_suburban_stations.kml", "source_url": "https://data.opencity.in/dataset/mumbai-suburban-network-2025" }, "geometry": { "type": "Point", "coordinates": [ 73.024040779651898, 18.974619535869 ] } },
{ "type": "Feature", "properties": { "station_id": "MUM_RAIL_STN_106", "station_name": "Kharkopar", "longitude": 73.014080280839906, "latitude": 18.9596615707448, "source": "BMC via OpenCity.in", "source_file": "mumbai_suburban_stations.kml", "source_url": "https://data.opencity.in/dataset/mumbai-suburban-network-2025" }, "geometry": { "type": "Point", "coordinates": [ 73.014080280839906, 18.9596615707448 ] } }
]
}
