{"type":"FeatureCollection","features":[{"type":"Feature","properties":{"id":"transit_route:gtfs_bengaluru_bmrcl:GREEN","field":"public_transport","kind":"transit_route","name":"Madavara - Silk Institute","ref":"Green","status":"operational","opened_on":null,"expected_completion":null,"agency":"BMRCL","source":"gtfs_bengaluru_bmrcl","confidence":0.7,"mode":"metro","tier":"secondary","geometry_source":"shape"},"geometry":{"type":"LineString","coordinates":[[77.4728,13.0574],[77.5162,13.0421],[77.5512,13.0225],[77.5532,13.0194],[77.5541,13.0138],[77.5491,13.0094],[77.5502,12.9983],[77.5559,12.9987],[77.5665,12.9963],[77.5719,12.9886],[77.573,12.9733],[77.5747,12.9693],[77.5737,12.9495],[77.58,12.9473],[77.5802,12.9179],[77.5739,12.9169],[77.5729,12.9114],[77.5734,12.9015],[77.5713,12.8973],[77.5604,12.8871],[77.5471,12.8829],[77.5439,12.8758],[77.5398,12.8731],[77.53,12.8617]]}},{"type":"Feature","properties":{"id":"transit_route:gtfs_bengaluru_bmrcl:YELLOW","field":"public_transport","kind":"transit_route","name":"Rashtreeya Vidyalaya Road - Delta Electronics Bommasandra","ref":"Yellow","status":"operational","opened_on":null,"expected_completion":null,"agency":"BMRCL","source":"gtfs_bengaluru_bmrcl","confidence":0.7,"mode":"metro","tier":"secondary","geometry_source":"shape"},"geometry":{"type":"LineString","coordinates":[[77.6884,12.8194],[77.6832,12.8251],[77.6779,12.8385],[77.6472,12.8769],[77.623,12.9166],[77.5813,12.9171],[77.5801,12.921]]}},{"type":"Feature","properties":{"id":"transit_route:gtfs_bengaluru_bmrcl:PURPLE","field":"public_transport","kind":"transit_route","name":"Whitefield (Kadugodi) - Challaghatta","ref":"Purple","status":"operational","opened_on":null,"expected_completion":null,"agency":"BMRCL","source":"gtfs_bengaluru_bmrcl","confidence":0.7,"mode":"metro","tier":"secondary","geometry_source":"shape"},"geometry":{"type":"LineString","coordinates":[[77.4613,12.8974],[77.4691,12.9022],[77.4734,12.9068],[77.4843,12.9106],[77.4937,12.9214],[77.511,12.935],[77.5206,12.937],[77.5283,12.9457],[77.5369,12.9498],[77.5367,12.9531],[77.5331,12.9604],[77.5389,12.9731],[77.5483,12.9745],[77.5505,12.9738],[77.5538,12.9756],[77.5691,12.976],[77.5757,12.9753],[77.5814,12.973],[77.5906,12.9777],[77.5952,12.9816],[77.6001,12.98],[77.6024,12.9766],[77.6208,12.9728],[77.629,12.9785],[77.6402,12.9785],[77.641,12.9844],[77.6476,12.987],[77.6492,12.9898],[77.6546,12.9914],[77.6611,12.9954],[77.6655,12.9954],[77.6762,12.9998],[77.6819,13.0004],[77.6867,13.0001],[77.6956,12.9955],[77.7134,12.992],[77.7138,12.9903],[77.7084,12.9858],[77.7096,12.9786],[77.7264,12.9765],[77.7283,12.9833],[77.7332,12.9879],[77.7402,12.9876],[77.7523,12.9845],[77.7579,12.9957]]}}]}