{"type":"FeatureCollection","features":[{"type":"Feature","properties":{"id":"transit_route:gtfs_chennai_cmrl:CMRL_1","field":"public_transport","kind":"transit_route","name":"Blue Line \u2014 Wimco Nagar Depot \u2194 Airport","ref":"Blue Line","status":"operational","opened_on":null,"expected_completion":null,"agency":"CMRL","source":"gtfs_chennai_cmrl","confidence":0.7,"mode":"metro","tier":"secondary","geometry_source":"shape"},"geometry":{"type":"LineString","coordinates":[[80.309,13.184],[80.2994,13.1487],[80.2775,13.109],[80.2684,13.088],[80.2739,13.0818],[80.2721,13.0693],[80.2663,13.0648],[80.2546,13.0457],[80.2232,13.0121],[80.2187,13.0086],[80.2061,13.0043],[80.1996,12.9955],[80.1765,12.9877],[80.1642,12.9808]]}},{"type":"Feature","properties":{"id":"transit_route:gtfs_chennai_cmrl:CMRL_2","field":"public_transport","kind":"transit_route","name":"Green Line \u2014 MGR Central \u2194 St. Thomas Mount","ref":"Green Line","status":"operational","opened_on":null,"expected_completion":null,"agency":"CMRL","source":"gtfs_chennai_cmrl","confidence":0.7,"mode":"metro","tier":"secondary","geometry_source":"shape"},"geometry":{"type":"LineString","coordinates":[[80.1972,13.0007],[80.2061,13.0043],[80.2053,13.0171],[80.2096,13.0373],[80.2153,13.0539],[80.212,13.0616],[80.2041,13.0685],[80.1952,13.0286],[80.2021,13.045],[80.2113,13.0513],[80.2204,13.0578],[80.2291,13.0665],[80.2505,13.0788],[80.2739,13.0818]]}},{"type":"Feature","properties":{"id":"transit_route:gtfs_chennai_cmrl:CMRL_3","field":"public_transport","kind":"transit_route","name":"Inter-Corridor \u2014 MGR Central \u2194 Airport","ref":"Inter-Corridor","status":"operational","opened_on":null,"expected_completion":null,"agency":"CMRL","source":"gtfs_chennai_cmrl","confidence":0.7,"mode":"metro","tier":"secondary","geometry_source":"stop_sequence"},"geometry":{"type":"LineString","coordinates":[[80.1642,12.9808],[80.2739,13.0818]]}}]}