{"type":"FeatureCollection","features":[{"type":"Feature","properties":{"id":"transit_stop:gtfs_chennai_cmrl:CMRL_01","field":"public_transport","kind":"transit_stop","name":"Wimco Nagar Depot","ref":null,"status":"operational","opened_on":null,"expected_completion":null,"agency":"CMRL","source":"gtfs_chennai_cmrl","confidence":0.7,"mode":"metro","tier":"secondary"},"geometry":{"type":"Point","coordinates":[80.309,13.184]}},{"type":"Feature","properties":{"id":"transit_stop:gtfs_chennai_cmrl:CMRL_02","field":"public_transport","kind":"transit_stop","name":"Wimco Nagar","ref":null,"status":"operational","opened_on":null,"expected_completion":null,"agency":"CMRL","source":"gtfs_chennai_cmrl","confidence":0.7,"mode":"metro","tier":"secondary"},"geometry":{"type":"Point","coordinates":[80.3073,13.1793]}},{"type":"Feature","properties":{"id":"transit_stop:gtfs_chennai_cmrl:CMRL_03","field":"public_transport","kind":"transit_stop","name":"Thiruvottriyur","ref":null,"status":"operational","opened_on":null,"expected_completion":null,"agency":"CMRL","source":"gtfs_chennai_cmrl","confidence":0.7,"mode":"metro","tier":"secondary"},"geometry":{"type":"Point","coordinates":[80.3052,13.1718]}},{"type":"Feature","properties":{"id":"transit_stop:gtfs_chennai_cmrl:CMRL_04","field":"public_transport","kind":"transit_stop","name":"Thiruvottriyur Theradi","ref":null,"status":"operational","opened_on":null,"expected_completion":null,"agency":"CMRL","source":"gtfs_chennai_cmrl","confidence":0.7,"mode":"metro","tier":"secondary"},"geometry":{"type":"Point","coordinates":[80.3035,13.1651]}},{"type":"Feature","properties":{"id":"transit_stop:gtfs_chennai_cmrl:CMRL_05","field":"public_transport","kind":"transit_stop","name":"Kaladipet","ref":null,"status":"operational","opened_on":null,"expected_completion":null,"agency":"CMRL","source":"gtfs_chennai_cmrl","confidence":0.7,"mode":"metro","tier":"secondary"},"geometry":{"type":"Point","coordinates":[80.3024,13.1602]}},{"type":"Feature","properties":{"id":"transit_stop:gtfs_chennai_cmrl:CMRL_06","field":"public_transport","kind":"transit_stop","name":"Tollgate","ref":null,"status":"operational","opened_on":null,"expected_completion":null,"agency":"CMRL","source":"gtfs_chennai_cmrl","confidence":0.7,"mode":"metro","tier":"secondary"},"geometry":{"type":"Point","coordinates":[80.3009,13.1545]}},{"type":"Feature","properties":{"id":"transit_stop:gtfs_chennai_cmrl:CMRL_07","field":"public_transport","kind":"transit_stop","name":"New Washermanpet","ref":null,"status":"operational","opened_on":null,"expected_completion":null,"agency":"CMRL","source":"gtfs_chennai_cmrl","confidence":0.7,"mode":"metro","tier":"secondary"},"geometry":{"type":"Point","coordinates":[80.2994,13.1487]}},{"type":"Feature","properties":{"id":"transit_stop:gtfs_chennai_cmrl:CMRL_08","field":"public_transport","kind":"transit_stop","name":"Tondiarpet","ref":null,"status":"operational","opened_on":null,"expected_completion":null,"agency":"CMRL","source":"gtfs_chennai_cmrl","confidence":0.7,"mode":"metro","tier":"secondary"},"geometry":{"type":"Point","coordinates":[80.2961,13.1425]}},{"type":"Feature","properties":{"id":"transit_stop:gtfs_chennai_cmrl:CMRL_09","field":"public_transport","kind":"transit_stop","name":"Sri Theagaraya College","ref":null,"status":"operational","opened_on":null,"expected_completion":null,"agency":"CMRL","source":"gtfs_chennai_cmrl","confidence":0.7,"mode":"metro","tier":"secondary"},"geometry":{"type":"Point","coordinates":[80.2923,13.1358]}},{"type":"Feature","properties":{"id":"transit_stop:gtfs_chennai_cmrl:CMRL_10","field":"public_transport","kind":"transit_stop","name":"Washermanpet","ref":null,"status":"operational","opened_on":null,"expected_completion":null,"agency":"CMRL","source":"gtfs_chennai_cmrl","confidence":0.7,"mode":"metro","tier":"secondary"},"geometry":{"type":"Point","coordinates":[80.2889,13.1288]}},{"type":"Feature","properties":{"id":"transit_stop:gtfs_chennai_cmrl:CMRL_11","field":"public_transport","kind":"transit_stop","name":"Mannadi","ref":null,"status":"operational","opened_on":null,"expected_completion":null,"agency":"CMRL","source":"gtfs_chennai_cmrl","confidence":0.7,"mode":"metro","tier":"secondary"},"geometry":{"type":"Point","coordinates":[80.2775,13.109]}},{"type":"Feature","properties":{"id":"transit_stop:gtfs_chennai_cmrl:CMRL_12","field":"public_transport","kind":"transit_stop","name":"High Court","ref":null,"status":"operational","opened_on":null,"expected_completion":null,"agency":"CMRL","source":"gtfs_chennai_cmrl","confidence":0.7,"mode":"metro","tier":"secondary"},"geometry":{"type":"Point","coordinates":[80.2684,13.088]}},{"type":"Feature","properties":{"id":"transit_stop:gtfs_chennai_cmrl:CMRL_13","field":"public_transport","kind":"transit_stop","name":"Puratchi Thalaivar Dr. M.G. Ramachandran Central","ref":null,"status":"operational","opened_on":null,"expected_completion":null,"agency":"CMRL","source":"gtfs_chennai_cmrl","confidence":0.7,"mode":"metro","tier":"secondary"},"geometry":{"type":"Point","coordinates":[80.2739,13.0818]}},{"type":"Feature","properties":{"id":"transit_stop:gtfs_chennai_cmrl:CMRL_14","field":"public_transport","kind":"transit_stop","name":"Government Estate","ref":null,"status":"operational","opened_on":null,"expected_completion":null,"agency":"CMRL","source":"gtfs_chennai_cmrl","confidence":0.7,"mode":"metro","tier":"secondary"},"geometry":{"type":"Point","coordinates":[80.2721,13.0693]}},{"type":"Feature","properties":{"id":"transit_stop:gtfs_chennai_cmrl:CMRL_15","field":"public_transport","kind":"transit_stop","name":"LIC","ref":null,"status":"operational","opened_on":null,"expected_completion":null,"agency":"CMRL","source":"gtfs_chennai_cmrl","confidence":0.7,"mode":"metro","tier":"secondary"},"geometry":{"type":"Point","coordinates":[80.2663,13.0648]}},{"type":"Feature","properties":{"id":"transit_stop:gtfs_chennai_cmrl:CMRL_16","field":"public_transport","kind":"transit_stop","name":"Thousand Lights","ref":null,"status":"operational","opened_on":null,"expected_completion":null,"agency":"CMRL","source":"gtfs_chennai_cmrl","confidence":0.7,"mode":"metro","tier":"secondary"},"geometry":{"type":"Point","coordinates":[80.2615,13.0572]}},{"type":"Feature","properties":{"id":"transit_stop:gtfs_chennai_cmrl:CMRL_17","field":"public_transport","kind":"transit_stop","name":"AG-DMS","ref":null,"status":"operational","opened_on":null,"expected_completion":null,"agency":"CMRL","source":"gtfs_chennai_cmrl","confidence":0.7,"mode":"metro","tier":"secondary"},"geometry":{"type":"Point","coordinates":[80.2546,13.0457]}},{"type":"Feature","properties":{"id":"transit_stop:gtfs_chennai_cmrl:CMRL_18","field":"public_transport","kind":"transit_stop","name":"Teynampet","ref":null,"status":"operational","opened_on":null,"expected_completion":null,"agency":"CMRL","source":"gtfs_chennai_cmrl","confidence":0.7,"mode":"metro","tier":"secondary"},"geometry":{"type":"Point","coordinates":[80.2464,13.0368]}},{"type":"Feature","properties":{"id":"transit_stop:gtfs_chennai_cmrl:CMRL_19","field":"public_transport","kind":"transit_stop","name":"Nandanam","ref":null,"status":"operational","opened_on":null,"expected_completion":null,"agency":"CMRL","source":"gtfs_chennai_cmrl","confidence":0.7,"mode":"metro","tier":"secondary"},"geometry":{"type":"Point","coordinates":[80.2411,13.031]}},{"type":"Feature","properties":{"id":"transit_stop:gtfs_chennai_cmrl:CMRL_20","field":"public_transport","kind":"transit_stop","name":"Saidapet","ref":null,"status":"operational","opened_on":null,"expected_completion":null,"agency":"CMRL","source":"gtfs_chennai_cmrl","confidence":0.7,"mode":"metro","tier":"secondary"},"geometry":{"type":"Point","coordinates":[80.232,13.0214]}},{"type":"Feature","properties":{"id":"transit_stop:gtfs_chennai_cmrl:CMRL_21","field":"public_transport","kind":"transit_stop","name":"Little Mount","ref":null,"status":"operational","opened_on":null,"expected_completion":null,"agency":"CMRL","source":"gtfs_chennai_cmrl","confidence":0.7,"mode":"metro","tier":"secondary"},"geometry":{"type":"Point","coordinates":[80.2232,13.0121]}},{"type":"Feature","properties":{"id":"transit_stop:gtfs_chennai_cmrl:CMRL_22","field":"public_transport","kind":"transit_stop","name":"Guindy","ref":null,"status":"operational","opened_on":null,"expected_completion":null,"agency":"CMRL","source":"gtfs_chennai_cmrl","confidence":0.7,"mode":"metro","tier":"secondary"},"geometry":{"type":"Point","coordinates":[80.2187,13.0086]}},{"type":"Feature","properties":{"id":"transit_stop:gtfs_chennai_cmrl:CMRL_23","field":"public_transport","kind":"transit_stop","name":"Arignar Anna Alandur","ref":null,"status":"operational","opened_on":null,"expected_completion":null,"agency":"CMRL","source":"gtfs_chennai_cmrl","confidence":0.7,"mode":"metro","tier":"secondary"},"geometry":{"type":"Point","coordinates":[80.2061,13.0043]}},{"type":"Feature","properties":{"id":"transit_stop:gtfs_chennai_cmrl:CMRL_24","field":"public_transport","kind":"transit_stop","name":"OTA-Nanganallur Road","ref":null,"status":"operational","opened_on":null,"expected_completion":null,"agency":"CMRL","source":"gtfs_chennai_cmrl","confidence":0.7,"mode":"metro","tier":"secondary"},"geometry":{"type":"Point","coordinates":[80.1996,12.9955]}},{"type":"Feature","properties":{"id":"transit_stop:gtfs_chennai_cmrl:CMRL_25","field":"public_transport","kind":"transit_stop","name":"Meenambakkam","ref":null,"status":"operational","opened_on":null,"expected_completion":null,"agency":"CMRL","source":"gtfs_chennai_cmrl","confidence":0.7,"mode":"metro","tier":"secondary"},"geometry":{"type":"Point","coordinates":[80.1765,12.9877]}},{"type":"Feature","properties":{"id":"transit_stop:gtfs_chennai_cmrl:CMRL_26","field":"public_transport","kind":"transit_stop","name":"Chennai International Airport","ref":null,"status":"operational","opened_on":null,"expected_completion":null,"agency":"CMRL","source":"gtfs_chennai_cmrl","confidence":0.7,"mode":"metro","tier":"secondary"},"geometry":{"type":"Point","coordinates":[80.1642,12.9808]}},{"type":"Feature","properties":{"id":"transit_stop:gtfs_chennai_cmrl:CMRL_G01","field":"public_transport","kind":"transit_stop","name":"Puratchi Thalaivar Dr. M.G. Ramachandran Central","ref":null,"status":"operational","opened_on":null,"expected_completion":null,"agency":"CMRL","source":"gtfs_chennai_cmrl","confidence":0.7,"mode":"metro","tier":"secondary"},"geometry":{"type":"Point","coordinates":[80.2739,13.0818]}},{"type":"Feature","properties":{"id":"transit_stop:gtfs_chennai_cmrl:CMRL_G02","field":"public_transport","kind":"transit_stop","name":"Egmore","ref":null,"status":"operational","opened_on":null,"expected_completion":null,"agency":"CMRL","source":"gtfs_chennai_cmrl","confidence":0.7,"mode":"metro","tier":"secondary"},"geometry":{"type":"Point","coordinates":[80.2631,13.0803]}},{"type":"Feature","properties":{"id":"transit_stop:gtfs_chennai_cmrl:CMRL_G03","field":"public_transport","kind":"transit_stop","name":"Nehru Park","ref":null,"status":"operational","opened_on":null,"expected_completion":null,"agency":"CMRL","source":"gtfs_chennai_cmrl","confidence":0.7,"mode":"metro","tier":"secondary"},"geometry":{"type":"Point","coordinates":[80.2505,13.0788]}},{"type":"Feature","properties":{"id":"transit_stop:gtfs_chennai_cmrl:CMRL_G04","field":"public_transport","kind":"transit_stop","name":"Kilpauk Medical College","ref":null,"status":"operational","opened_on":null,"expected_completion":null,"agency":"CMRL","source":"gtfs_chennai_cmrl","confidence":0.7,"mode":"metro","tier":"secondary"},"geometry":{"type":"Point","coordinates":[80.2424,13.0743]}},{"type":"Feature","properties":{"id":"transit_stop:gtfs_chennai_cmrl:CMRL_G05","field":"public_transport","kind":"transit_stop","name":"Pachaiyappas College","ref":null,"status":"operational","opened_on":null,"expected_completion":null,"agency":"CMRL","source":"gtfs_chennai_cmrl","confidence":0.7,"mode":"metro","tier":"secondary"},"geometry":{"type":"Point","coordinates":[80.236,13.0707]}},{"type":"Feature","properties":{"id":"transit_stop:gtfs_chennai_cmrl:CMRL_G06","field":"public_transport","kind":"transit_stop","name":"Shenoy Nagar","ref":null,"status":"operational","opened_on":null,"expected_completion":null,"agency":"CMRL","source":"gtfs_chennai_cmrl","confidence":0.7,"mode":"metro","tier":"secondary"},"geometry":{"type":"Point","coordinates":[80.2291,13.0665]}},{"type":"Feature","properties":{"id":"transit_stop:gtfs_chennai_cmrl:CMRL_G07","field":"public_transport","kind":"transit_stop","name":"Anna Nagar East","ref":null,"status":"operational","opened_on":null,"expected_completion":null,"agency":"CMRL","source":"gtfs_chennai_cmrl","confidence":0.7,"mode":"metro","tier":"secondary"},"geometry":{"type":"Point","coordinates":[80.2204,13.0578]}},{"type":"Feature","properties":{"id":"transit_stop:gtfs_chennai_cmrl:CMRL_G08","field":"public_transport","kind":"transit_stop","name":"Anna Nagar Tower","ref":null,"status":"operational","opened_on":null,"expected_completion":null,"agency":"CMRL","source":"gtfs_chennai_cmrl","confidence":0.7,"mode":"metro","tier":"secondary"},"geometry":{"type":"Point","coordinates":[80.2113,13.0513]}},{"type":"Feature","properties":{"id":"transit_stop:gtfs_chennai_cmrl:CMRL_G09","field":"public_transport","kind":"transit_stop","name":"Thirumangalam","ref":null,"status":"operational","opened_on":null,"expected_completion":null,"agency":"CMRL","source":"gtfs_chennai_cmrl","confidence":0.7,"mode":"metro","tier":"secondary"},"geometry":{"type":"Point","coordinates":[80.2021,13.045]}},{"type":"Feature","properties":{"id":"transit_stop:gtfs_chennai_cmrl:CMRL_G10","field":"public_transport","kind":"transit_stop","name":"Koyambedu","ref":null,"status":"operational","opened_on":null,"expected_completion":null,"agency":"CMRL","source":"gtfs_chennai_cmrl","confidence":0.7,"mode":"metro","tier":"secondary"},"geometry":{"type":"Point","coordinates":[80.1974,13.0355]}},{"type":"Feature","properties":{"id":"transit_stop:gtfs_chennai_cmrl:CMRL_G11","field":"public_transport","kind":"transit_stop","name":"Koyambedu Depot","ref":null,"status":"operational","opened_on":null,"expected_completion":null,"agency":"CMRL","source":"gtfs_chennai_cmrl","confidence":0.7,"mode":"metro","tier":"secondary"},"geometry":{"type":"Point","coordinates":[80.1952,13.0286]}},{"type":"Feature","properties":{"id":"transit_stop:gtfs_chennai_cmrl:CMRL_G12","field":"public_transport","kind":"transit_stop","name":"Puratchi Thalaivi Dr. J. Jayalalithaa CMBT","ref":null,"status":"operational","opened_on":null,"expected_completion":null,"agency":"CMRL","source":"gtfs_chennai_cmrl","confidence":0.7,"mode":"metro","tier":"secondary"},"geometry":{"type":"Point","coordinates":[80.2041,13.0685]}},{"type":"Feature","properties":{"id":"transit_stop:gtfs_chennai_cmrl:CMRL_G13","field":"public_transport","kind":"transit_stop","name":"Arumbakkam","ref":null,"status":"operational","opened_on":null,"expected_completion":null,"agency":"CMRL","source":"gtfs_chennai_cmrl","confidence":0.7,"mode":"metro","tier":"secondary"},"geometry":{"type":"Point","coordinates":[80.212,13.0616]}},{"type":"Feature","properties":{"id":"transit_stop:gtfs_chennai_cmrl:CMRL_G14","field":"public_transport","kind":"transit_stop","name":"Vadapalani","ref":null,"status":"operational","opened_on":null,"expected_completion":null,"agency":"CMRL","source":"gtfs_chennai_cmrl","confidence":0.7,"mode":"metro","tier":"secondary"},"geometry":{"type":"Point","coordinates":[80.2153,13.0539]}},{"type":"Feature","properties":{"id":"transit_stop:gtfs_chennai_cmrl:CMRL_G15","field":"public_transport","kind":"transit_stop","name":"Ashok Nagar","ref":null,"status":"operational","opened_on":null,"expected_completion":null,"agency":"CMRL","source":"gtfs_chennai_cmrl","confidence":0.7,"mode":"metro","tier":"secondary"},"geometry":{"type":"Point","coordinates":[80.2096,13.0373]}},{"type":"Feature","properties":{"id":"transit_stop:gtfs_chennai_cmrl:CMRL_G16","field":"public_transport","kind":"transit_stop","name":"Ekkattuthangal","ref":null,"status":"operational","opened_on":null,"expected_completion":null,"agency":"CMRL","source":"gtfs_chennai_cmrl","confidence":0.7,"mode":"metro","tier":"secondary"},"geometry":{"type":"Point","coordinates":[80.2053,13.0171]}},{"type":"Feature","properties":{"id":"transit_stop:gtfs_chennai_cmrl:CMRL_G17","field":"public_transport","kind":"transit_stop","name":"Arignar Anna Alandur","ref":null,"status":"operational","opened_on":null,"expected_completion":null,"agency":"CMRL","source":"gtfs_chennai_cmrl","confidence":0.7,"mode":"metro","tier":"secondary"},"geometry":{"type":"Point","coordinates":[80.2061,13.0043]}},{"type":"Feature","properties":{"id":"transit_stop:gtfs_chennai_cmrl:CMRL_G18","field":"public_transport","kind":"transit_stop","name":"St. Thomas Mount","ref":null,"status":"operational","opened_on":null,"expected_completion":null,"agency":"CMRL","source":"gtfs_chennai_cmrl","confidence":0.7,"mode":"metro","tier":"secondary"},"geometry":{"type":"Point","coordinates":[80.1972,13.0007]}}]}