{"type":"FeatureCollection","features":[{"type":"Feature","properties":{"id":"transit_route:metro_hyd_hmrl_gtfs:RED","field":"public_transport","kind":"transit_route","name":"Miyapur - LB Nagar - Miyapur - C1","ref":"C1_RED","status":"operational","opened_on":null,"expected_completion":null,"agency":"HMRL","source":"metro_hyd_hmrl_gtfs","confidence":0.9,"mode":"metro","tier":"official","geometry_source":"shape"},"geometry":{"type":"LineString","coordinates":[[78.5479,17.3498],[78.5432,17.3642],[78.5398,17.3676],[78.5141,17.37],[78.5083,17.3726],[78.5005,17.3739],[78.4952,17.3771],[78.4893,17.3775],[78.4852,17.3807],[78.4749,17.3839],[78.4701,17.3902],[78.4703,17.4009],[78.4606,17.4072],[78.4607,17.4122],[78.4576,17.4161],[78.4569,17.4192],[78.4505,17.4295],[78.4437,17.4372],[78.4281,17.4689],[78.4234,17.4757],[78.4126,17.4838],[78.4069,17.4913],[78.3976,17.4957],[78.391,17.4983],[78.3828,17.4994],[78.373,17.4965]]}},{"type":"Feature","properties":{"id":"transit_route:metro_hyd_hmrl_gtfs:GREEN","field":"public_transport","kind":"transit_route","name":"JBS Parade Ground - MG Bus Station - JBS Parade Ground - C2","ref":"C2_GREEN","status":"operational","opened_on":null,"expected_completion":null,"agency":"HMRL","source":"metro_hyd_hmrl_gtfs","confidence":0.9,"mode":"metro","tier":"official","geometry_source":"shape"},"geometry":{"type":"LineString","coordinates":[[78.4966,17.4491],[78.4963,17.446],[78.4985,17.4434],[78.5007,17.4352],[78.498,17.4321],[78.5023,17.429],[78.5017,17.4225],[78.4978,17.4141],[78.4979,17.4097],[78.4948,17.3994],[78.4903,17.3953],[78.4888,17.3901],[78.4827,17.3828],[78.4864,17.3785],[78.4837,17.3747]]}},{"type":"Feature","properties":{"id":"transit_route:metro_hyd_hmrl_gtfs:BLUE","field":"public_transport","kind":"transit_route","name":"Nagole - Raidurg - Nagole - C3","ref":"C3_BLUE","status":"operational","opened_on":null,"expected_completion":null,"agency":"HMRL","source":"metro_hyd_hmrl_gtfs","confidence":0.9,"mode":"metro","tier":"official","geometry_source":"shape"},"geometry":{"type":"LineString","coordinates":[[78.5588,17.3902],[78.5602,17.4013],[78.5531,17.4086],[78.5363,17.4244],[78.527,17.429],[78.5178,17.4369],[78.5101,17.4335],[78.5064,17.4334],[78.5047,17.4377],[78.5055,17.4414],[78.5042,17.4427],[78.4641,17.445],[78.4583,17.4419],[78.4555,17.4354],[78.4527,17.436],[78.446,17.4341],[78.4434,17.4369],[78.4405,17.4377],[78.4376,17.4361],[78.4285,17.4365],[78.4252,17.4299],[78.4199,17.4309],[78.4154,17.427],[78.412,17.4299],[78.4075,17.4312],[78.3993,17.4387],[78.3883,17.4416],[78.3813,17.4511],[78.3796,17.4504],[78.3775,17.4463],[78.3772,17.4413]]}}]}